0 SL-14 DEB
1 25832U 78100AU  13266.00000000  .00000017  00000-0  10477-3 0   658
2 25832 082.5467 143.3756 0009660 242.6753 188.8826 11.97473900101467
0 SL-14 DEB
1 25832U 78100AU  13269.30426733  .00000119  00000-0  14089-2 0   676
2 25832 082.5464 141.5008 0010044 231.4514 037.9956 11.97474274101859
